{
    "links": {
        "self": "http://www.neowsapp.com/rest/v1/neo/3831839?api_key=iIulBulltgU6a56xZRHN4H3l9WmuAYTsLGpBGhQ2"
    },
    "id": "3831839",
    "neo_reference_id": "3831839",
    "name": "(2018 TO5)",
    "designation": "2018 TO5",
    "nasa_jpl_url": "http://ssd.jpl.nasa.gov/sbdb.cgi?sstr=3831839",
    "absolute_magnitude_h": 23.0,
    "estimated_diameter": {
        "kilometers": {
            "estimated_diameter_min": 0.0667659413,
            "estimated_diameter_max": 0.1492931834
        },
        "meters": {
            "estimated_diameter_min": 66.7659413495,
            "estimated_diameter_max": 149.2931834393
        },
        "miles": {
            "estimated_diameter_min": 0.0414864197,
            "estimated_diameter_max": 0.0927664547
        },
        "feet": {
            "estimated_diameter_min": 219.0483710172,
            "estimated_diameter_max": 489.807047955
        }
    },
    "is_potentially_hazardous_asteroid": false,
    "close_approach_data": [
        {
            "close_approach_date": "2018-09-24",
            "close_approach_date_full": "2018-Sep-24 05:47",
            "epoch_date_close_approach": 1537768020000,
            "relative_velocity": {
                "kilometers_per_second": "8.308404523",
                "kilometers_per_hour": "29910.2562827909",
                "miles_per_hour": "18585.070077493"
            },
            "miss_distance": {
                "astronomical": "0.1937505363",
                "lunar": "75.3689586207",
                "kilometers": "28984667.541837681",
                "miles": "18010237.2646987578"
            },
            "orbiting_body": "Earth"
        }
    ],
    "orbital_data": {
        "orbit_id": "4",
        "orbit_determination_date": "2018-11-06 06:08:39",
        "first_observation_date": "2018-10-10",
        "last_observation_date": "2018-10-28",
        "data_arc_in_days": 18,
        "observations_used": 33,
        "orbit_uncertainty": "7",
        "minimum_orbit_intersection": ".140911",
        "jupiter_tisserand_invariant": "3.364",
        "epoch_osculation": "2459000.5",
        "eccentricity": ".511745966322708",
        "semi_major_axis": "2.337832686094563",
        "inclination": "8.655489200531179",
        "ascending_node_longitude": "4.901887127526537",
        "orbital_period": "1305.625327989741",
        "perihelion_distance": "1.141456239048289",
        "perihelion_argument": "345.7886497976054",
        "aphelion_distance": "3.534209133140837",
        "perihelion_time": "2458382.778568242259",
        "mean_anomaly": "170.3242964619741",
        "mean_motion": ".2757299450940406",
        "equinox": "J2000",
        "orbit_class": {
            "orbit_class_type": "AMO",
            "orbit_class_description": "Near-Earth asteroid orbits similar to that of 1221 Amor",
            "orbit_class_range": "1.017 AU < q (perihelion) < 1.3 AU"
        }
    },
    "is_sentry_object": false
}